ONEWEB-0349             
1 49281U 21090C   25131.11071331  .00000184  00000+0  42059-3 0  9990
2 49281  87.9287 354.5155 0001764  87.3889 272.7446 13.20772174176758
ONEWEB-0353             
1 49282U 21090D   25131.61327558 -.00000258  00000+0 -73151-3 0  9992
2 49282  87.9069   9.5894 0001581  76.5782 283.5523 13.14502004174821
ONEWEB-0356             
1 49283U 21090E   25131.18489281  .00000148  00000+0  33224-3 0  9990
2 49283  87.9287 354.4923 0002432  65.5199 294.6188 13.20773130176767
ONEWEB-0358             
1 49284U 21090F   25131.59367046 -.00000035  00000+0 -11919-3 0  9994
2 49284  87.9287 354.4009 0001970  83.3505 276.7853 13.20772410177545
ONEWEB-0359             
1 49285U 21090G   25131.13597198  .00000038  00000+0  61505-4 0  9996
2 49285  87.9285 354.5046 0002173  90.4666 269.6716 13.20773259177461
ONEWEB-0360             
1 49286U 21090H   25131.35376912  .00000116  00000+0  25247-3 0  9999
2 49286  87.9287 354.4671 0001926  86.8001 273.3352 13.20773326176804
ONEWEB-0361             
1 49287U 21090J   25131.86512318  .00000059  00000+0  11306-3 0  9995
2 49287  87.9285 354.3609 0001893  79.4277 280.7070 13.20773525178159
ONEWEB-0362             
1 49288U 21090K   25131.19659248  .00000102  00000+0  22282-3 0  9990
2 49288  87.9257  24.8996 0001790  87.1614 272.9724 13.19724580173894
